CCSDS_OMM_VERS = 2.0
CREATION_DATE  = 
ORIGINATOR     = 

OBJECT_NAME    = STARLINK-35602
OBJECT_ID      = 2025-257Z
CENTER_NAME    = EARTH
REF_FRAME      = TEME
TIME_SYSTEM    = UTC
MEAN_ELEMENT_THEORY = SGP/SGP4

EPOCH          = 2025-12-05T22:00:03.000096
MEAN_MOTION    = 15.49350612
ECCENTRICITY   = .000128
INCLINATION    = 53.1591
RA_OF_ASC_NODE = 296.3925
ARG_OF_PERICENTER = 102.9405
MEAN_ANOMALY   = 223.9714

EPHEMERIS_TYPE = 0
CLASSIFICATION_TYPE = U
NORAD_CAT_ID   = 66403
ELEMENT_SET_NO = 999
REV_AT_EPOCH   = 540
BSTAR          = -.13761541E-2
MEAN_MOTION_DOT = -.76353E-3
MEAN_MOTION_DDOT = 0

CCSDS_OMM_VERS = 2.0
CREATION_DATE  = 
ORIGINATOR     = 

OBJECT_NAME    = STARLINK-35691
OBJECT_ID      = 2025-257AA
CENTER_NAME    = EARTH
REF_FRAME      = TEME
TIME_SYSTEM    = UTC
MEAN_ELEMENT_THEORY = SGP/SGP4

EPOCH          = 2025-12-05T22:08:07.251360
MEAN_MOTION    = 15.49343728
ECCENTRICITY   = .00011307
INCLINATION    = 53.1587
RA_OF_ASC_NODE = 296.3624
ARG_OF_PERICENTER = 113.8336
MEAN_ANOMALY   = 246.2792

EPHEMERIS_TYPE = 0
CLASSIFICATION_TYPE = U
NORAD_CAT_ID   = 66404
ELEMENT_SET_NO = 999
REV_AT_EPOCH   = 532
BSTAR          = .2670334E-2
MEAN_MOTION_DOT = .151157E-2
MEAN_MOTION_DDOT = 0

CCSDS_OMM_VERS = 2.0
CREATION_DATE  = 
ORIGINATOR     = 

OBJECT_NAME    = STARLINK-35683
OBJECT_ID      = 2025-257AB
CENTER_NAME    = EARTH
REF_FRAME      = TEME
TIME_SYSTEM    = UTC
MEAN_ELEMENT_THEORY = SGP/SGP4

EPOCH          = 2025-12-05T03:32:55.910112
MEAN_MOTION    = 15.49296572
ECCENTRICITY   = .00011798
INCLINATION    = 53.1594
RA_OF_ASC_NODE = 300.0603
ARG_OF_PERICENTER = 87.8456
MEAN_ANOMALY   = 272.2688

EPHEMERIS_TYPE = 0
CLASSIFICATION_TYPE = U
NORAD_CAT_ID   = 66405
ELEMENT_SET_NO = 999
REV_AT_EPOCH   = 513
BSTAR          = .11542428E-2
MEAN_MOTION_DOT = .64247E-3
MEAN_MOTION_DDOT = 0

CCSDS_OMM_VERS = 2.0
CREATION_DATE  = 
ORIGINATOR     = 

OBJECT_NAME    = STARLINK-34840
OBJECT_ID      = 2025-257AC
CENTER_NAME    = EARTH
REF_FRAME      = TEME
TIME_SYSTEM    = UTC
MEAN_ELEMENT_THEORY = SGP/SGP4

EPOCH          = 2025-12-05T23:39:02.144736
MEAN_MOTION    = 15.49331836
ECCENTRICITY   = .00014282
INCLINATION    = 53.1584
RA_OF_ASC_NODE = 296.0450
ARG_OF_PERICENTER = 70.1271
MEAN_ANOMALY   = 289.9892

EPHEMERIS_TYPE = 0
CLASSIFICATION_TYPE = U
NORAD_CAT_ID   = 66406
ELEMENT_SET_NO = 999
REV_AT_EPOCH   = 527
BSTAR          = .13908637E-2
MEAN_MOTION_DOT = .77742E-3
MEAN_MOTION_DDOT = 0

CCSDS_OMM_VERS = 2.0
CREATION_DATE  = 
ORIGINATOR     = 

OBJECT_NAME    = STARLINK-35686
OBJECT_ID      = 2025-257AD
CENTER_NAME    = EARTH
REF_FRAME      = TEME
TIME_SYSTEM    = UTC
MEAN_ELEMENT_THEORY = SGP/SGP4

EPOCH          = 2025-12-05T23:40:01.455744
MEAN_MOTION    = 15.49316432
ECCENTRICITY   = .00010325
INCLINATION    = 53.1588
RA_OF_ASC_NODE = 296.0488
ARG_OF_PERICENTER = 50.4075
MEAN_ANOMALY   = 309.7026

EPHEMERIS_TYPE = 0
CLASSIFICATION_TYPE = U
NORAD_CAT_ID   = 66407
ELEMENT_SET_NO = 999
REV_AT_EPOCH   = 533
BSTAR          = .16306165E-2
MEAN_MOTION_DOT = .9133E-3
MEAN_MOTION_DDOT = 0

CCSDS_OMM_VERS = 2.0
CREATION_DATE  = 
ORIGINATOR     = 

OBJECT_NAME    = STARLINK-35679
OBJECT_ID      = 2025-257AE
CENTER_NAME    = EARTH
REF_FRAME      = TEME
TIME_SYSTEM    = UTC
MEAN_ELEMENT_THEORY = SGP/SGP4

EPOCH          = 2025-12-05T22:06:38.305152
MEAN_MOTION    = 15.49358652
ECCENTRICITY   = .00007991
INCLINATION    = 53.1590
RA_OF_ASC_NODE = 296.3568
ARG_OF_PERICENTER = 63.0684
MEAN_ANOMALY   = 297.0407

EPHEMERIS_TYPE = 0
CLASSIFICATION_TYPE = U
NORAD_CAT_ID   = 66408
ELEMENT_SET_NO = 999
REV_AT_EPOCH   = 532
BSTAR          = .23857485E-2
MEAN_MOTION_DOT = .134786E-2
MEAN_MOTION_DDOT = 0

CCSDS_OMM_VERS = 2.0
CREATION_DATE  = 
ORIGINATOR     = 

OBJECT_NAME    = CHUTIAN-2 A
OBJECT_ID      = 2025-256A
CENTER_NAME    = EARTH
REF_FRAME      = TEME
TIME_SYSTEM    = UTC
MEAN_ELEMENT_THEORY = SGP/SGP4

EPOCH          = 2025-12-05T23:06:25.400736
MEAN_MOTION    = 14.49927133
ECCENTRICITY   = .00133415
INCLINATION    = 98.2779
RA_OF_ASC_NODE = 44.8439
ARG_OF_PERICENTER = 198.3880
MEAN_ANOMALY   = 161.6834

EPHEMERIS_TYPE = 0
CLASSIFICATION_TYPE = U
NORAD_CAT_ID   = 66409
ELEMENT_SET_NO = 999
REV_AT_EPOCH   = 389
BSTAR          = .33833545E-3
MEAN_MOTION_DOT = .1266E-4
MEAN_MOTION_DDOT = 0

CCSDS_OMM_VERS = 2.0
CREATION_DATE  = 
ORIGINATOR     = 

OBJECT_NAME    = CHUTIAN-2 B
OBJECT_ID      = 2025-256B
CENTER_NAME    = EARTH
REF_FRAME      = TEME
TIME_SYSTEM    = UTC
MEAN_ELEMENT_THEORY = SGP/SGP4

EPOCH          = 2025-12-05T22:46:56.663616
MEAN_MOTION    = 14.51011827
ECCENTRICITY   = .00134187
INCLINATION    = 98.2803
RA_OF_ASC_NODE = 44.8691
ARG_OF_PERICENTER = 202.1367
MEAN_ANOMALY   = 157.9250

EPHEMERIS_TYPE = 0
CLASSIFICATION_TYPE = U
NORAD_CAT_ID   = 66410
ELEMENT_SET_NO = 999
REV_AT_EPOCH   = 389
BSTAR          = .31904173E-3
MEAN_MOTION_DOT = .1219E-4
MEAN_MOTION_DDOT = 0

CCSDS_OMM_VERS = 2.0
CREATION_DATE  = 
ORIGINATOR     = 

OBJECT_NAME    = ZK-1A R/B
OBJECT_ID      = 2025-256C
CENTER_NAME    = EARTH
REF_FRAME      = TEME
TIME_SYSTEM    = UTC
MEAN_ELEMENT_THEORY = SGP/SGP4

EPOCH          = 2025-12-05T22:02:26.643552
MEAN_MOTION    = 15.01732730
ECCENTRICITY   = .0229073
INCLINATION    = 98.3241
RA_OF_ASC_NODE = 47.2057
ARG_OF_PERICENTER = 267.7675
MEAN_ANOMALY   = 89.7304

EPHEMERIS_TYPE = 0
CLASSIFICATION_TYPE = U
NORAD_CAT_ID   = 66411
ELEMENT_SET_NO = 999
REV_AT_EPOCH   = 402
BSTAR          = .90013002E-3
MEAN_MOTION_DOT = .20707E-3
MEAN_MOTION_DDOT = 0

CCSDS_OMM_VERS = 2.0
CREATION_DATE  = 
ORIGINATOR     = 

OBJECT_NAME    = HULIANWANG DIGUI 13A
OBJECT_ID      = 2025-258A
CENTER_NAME    = EARTH
REF_FRAME      = TEME
TIME_SYSTEM    = UTC
MEAN_ELEMENT_THEORY = SGP/SGP4

EPOCH          = 2025-12-05T21:34:54.424128
MEAN_MOTION    = 14.22483467
ECCENTRICITY   = .0013174
INCLINATION    = 50.0056
RA_OF_ASC_NODE = 290.7730
ARG_OF_PERICENTER = 333.7456
MEAN_ANOMALY   = 26.2788

EPHEMERIS_TYPE = 0
CLASSIFICATION_TYPE = U
NORAD_CAT_ID   = 66412
ELEMENT_SET_NO = 999
REV_AT_EPOCH   = 368
BSTAR          = .33228063E-3
MEAN_MOTION_DOT = .588E-5
MEAN_MOTION_DDOT = 0

CCSDS_OMM_VERS = 2.0
CREATION_DATE  = 
ORIGINATOR     = 

OBJECT_NAME    = HULIANWANG DIGUI 13B
OBJECT_ID      = 2025-258B
CENTER_NAME    = EARTH
REF_FRAME      = TEME
TIME_SYSTEM    = UTC
MEAN_ELEMENT_THEORY = SGP/SGP4

EPOCH          = 2025-12-05T09:58:14.098080
MEAN_MOTION    = 14.22286108
ECCENTRICITY   = .00131872
INCLINATION    = 50.0013
RA_OF_ASC_NODE = 292.8683
ARG_OF_PERICENTER = 332.0634
MEAN_ANOMALY   = 27.9569

EPHEMERIS_TYPE = 0
CLASSIFICATION_TYPE = U
NORAD_CAT_ID   = 66413
ELEMENT_SET_NO = 999
REV_AT_EPOCH   = 361
BSTAR          = .3474057E-3
MEAN_MOTION_DOT = .619E-5
MEAN_MOTION_DDOT = 0

CCSDS_OMM_VERS = 2.0
CREATION_DATE  = 
ORIGINATOR     = 

OBJECT_NAME    = HULIANWANG DIGUI 13C
OBJECT_ID      = 2025-258C
CENTER_NAME    = EARTH
REF_FRAME      = TEME
TIME_SYSTEM    = UTC
MEAN_ELEMENT_THEORY = SGP/SGP4

EPOCH          = 2025-12-05T09:53:35.287008
MEAN_MOTION    = 14.22441770
ECCENTRICITY   = .00137409
INCLINATION    = 50.0052
RA_OF_ASC_NODE = 292.8676
ARG_OF_PERICENTER = 331.0235
MEAN_ANOMALY   = 28.9914

EPHEMERIS_TYPE = 0
CLASSIFICATION_TYPE = U
NORAD_CAT_ID   = 66414
ELEMENT_SET_NO = 999
REV_AT_EPOCH   = 361
BSTAR          = .35499636E-3
MEAN_MOTION_DOT = .638E-5
MEAN_MOTION_DDOT = 0

