STARLINK-35602          
1 66403U 25257Z   25339.91670139 -.00076353  00000+0 -13762-2 0  9994
2 66403  53.1591 296.3925 0001280 102.9405 223.9714 15.49350612  5406
STARLINK-35691          
1 66404U 25257AA  25339.92230615  .00151157  00000+0  26703-2 0  9990
2 66404  53.1587 296.3624 0001130 113.8336 246.2792 15.49343728  5321
STARLINK-35683          
1 66405U 25257AB  25339.14786933  .00064247  00000+0  11542-2 0  9992
2 66405  53.1594 300.0603 0001179  87.8456 272.2688 15.49296572  5132
STARLINK-34840          
1 66406U 25257AC  25339.98544149  .00077742  00000+0  13909-2 0  9999
2 66406  53.1584 296.0450 0001428  70.1271 289.9892 15.49331836  5273
STARLINK-35686          
1 66407U 25257AD  25339.98612796  .00091330  00000+0  16306-2 0  9997
2 66407  53.1588 296.0488 0001032  50.4075 309.7026 15.49316432  5335
STARLINK-35679          
1 66408U 25257AE  25339.92127668  .00134786  00000+0  23857-2 0  9993
2 66408  53.1590 296.3568 0000799  63.0684 297.0407 15.49358652  5327
CHUTIAN-2 A             
1 66409U 25256A   25339.96279399  .00001266  00000+0  33834-3 0  9999
2 66409  98.2779  44.8439 0013341 198.3880 161.6834 14.49927133  3892
CHUTIAN-2 B             
1 66410U 25256B   25339.94926694  .00001219  00000+0  31904-3 0  9990
2 66410  98.2803  44.8691 0013418 202.1367 157.9250 14.51011827  3898
ZK-1A R/B               
1 66411U 25256C   25339.91836393  .00020707  00000+0  90013-3 0  9993
2 66411  98.3241  47.2057 0229073 267.7675  89.7304 15.01732730  4021
HULIANWANG DIGUI 13A    
1 66412U 25258A   25339.89924102  .00000588  00000+0  33228-3 0  9999
2 66412  50.0056 290.7730 0013174 333.7456  26.2788 14.22483467  3683
HULIANWANG DIGUI 13B    
1 66413U 25258B   25339.41544095  .00000619  00000+0  34741-3 0  9993
2 66413  50.0013 292.8683 0013187 332.0634  27.9569 14.22286108  3612
HULIANWANG DIGUI 13C    
1 66414U 25258C   25339.41221397  .00000638  00000+0  35500-3 0  9996
2 66414  50.0052 292.8676 0013740 331.0235  28.9914 14.22441770  3612
